[{"OBJECT_NAME":"STARLINK-3511","OBJECT_ID":"2022-016AQ","EPOCH":"2026-03-09T21:20:54.137472","MEAN_MOTION":15.08842842,"ECCENTRICITY":0.00012467,"INCLINATION":53.2182,"RA_OF_ASC_NODE":308.1552,"ARG_OF_PERICENTER":94.3109,"MEAN_ANOMALY":265.8026,"EPHEMERIS_TYPE":0,"CLASSIFICATION_TYPE":"U","NORAD_CAT_ID":51752,"ELEMENT_SET_NO":999,"REV_AT_EPOCH":22373,"BSTAR":-1.2868255e-5,"MEAN_MOTION_DOT":-4.93e-6,"MEAN_MOTION_DDOT":0},{"OBJECT_NAME":"CZ-6A DEB","OBJECT_ID":"2022-151AFR","EPOCH":"2026-03-09T05:35:50.250336","MEAN_MOTION":14.7956831,"ECCENTRICITY":0.01345943,"INCLINATION":98.6622,"RA_OF_ASC_NODE":165.7254,"ARG_OF_PERICENTER":140.0218,"MEAN_ANOMALY":221.0996,"EPHEMERIS_TYPE":0,"CLASSIFICATION_TYPE":"U","NORAD_CAT_ID":56641,"ELEMENT_SET_NO":999,"REV_AT_EPOCH":15895,"BSTAR":0.00092929705,"MEAN_MOTION_DOT":8.055e-5,"MEAN_MOTION_DDOT":0}]
